{
  "type": "FeatureCollection",
  "features": [
    {
      "type": "Feature",
      "properties": {
        "norad_id": 29968,
        "name": "FENGYUN 1C DEB",
        "group": "fengyun-1c-debris",
        "lat": -8.527689024866394,
        "lon": -9.923554643204222,
        "alt_km": 817.6233409551141,
        "timestamp": "2025-12-25T07:41:09.995936+00:00",
        "meta_object_name": "FENGYUN 1C DEB",
        "meta_object_id": "1999-025KS",
        "meta_epoch": "2025-12-24T21:46:56.588160",
        "meta_mean_motion": 14.07266092,
        "meta_eccentricity": 0.00895076,
        "meta_inclination": 98.8056,
        "meta_ra_of_asc_node": 348.3426,
        "meta_arg_of_pericenter": 320.4351,
        "meta_mean_anomaly": 101.093,
        "meta_ephemeris_type": 0,
        "meta_classification_type": "U",
        "meta_norad_cat_id": 29968,
        "meta_element_set_no": 999,
        "meta_rev_at_epoch": 97220,
        "meta_bstar": 0.00025844064,
        "meta_mean_motion_dot": 4.06e-06,
        "meta_mean_motion_ddot": 0,
        "tle_line1": "1 29968U 99025KS  25358.90759940  .00000406  00000+0  25844-3 0  9990",
        "tle_line2": "2 29968  98.8056 348.3426 0089507 320.4351 101.0930 14.07266092972200"
      },
      "geometry": {
        "type": "Point",
        "coordinates": [
          -9.923554643204222,
          -8.527689024866394
        ]
      }
    },
    {
      "type": "Feature",
      "properties": {
        "norad_id": 29969,
        "name": "FENGYUN 1C DEB",
        "group": "fengyun-1c-debris",
        "lat": 34.32559831218357,
        "lon": -90.15833774836796,
        "alt_km": 798.2510777046127,
        "timestamp": "2025-12-25T07:41:09.995946+00:00",
        "meta_object_name": "FENGYUN 1C DEB",
        "meta_object_id": "1999-025KT",
        "meta_epoch": "2025-12-24T19:51:44.572608",
        "meta_mean_motion": 14.33323257,
        "meta_eccentricity": 0.00408508,
        "meta_inclination": 98.7708,
        "meta_ra_of_asc_node": 83.2916,
        "meta_arg_of_pericenter": 13.5572,
        "meta_mean_anomaly": 110.5779,
        "meta_ephemeris_type": 0,
        "meta_classification_type": "U",
        "meta_norad_cat_id": 29969,
        "meta_element_set_no": 999,
        "meta_rev_at_epoch": 97835,
        "meta_bstar": 0.0016949819,
        "meta_mean_motion_dot": 4.67e-05,
        "meta_mean_motion_ddot": 0,
        "tle_line1": "1 29969U 99025KT  25358.82759922  .00004670  00000+0  16950-2 0  9996",
        "tle_line2": "2 29969  98.7708  83.2916 0040850  13.5572 110.5779 14.33323257978350"
      },
      "geometry": {
        "type": "Point",
        "coordinates": [
          -90.15833774836796,
          34.32559831218357
        ]
      }
    },
    {
      "type": "Feature",
      "properties": {
        "norad_id": 29970,
        "name": "FENGYUN 1C DEB",
        "group": "fengyun-1c-debris",
        "lat": 65.13608842507053,
        "lon": 127.62571907883758,
        "alt_km": 686.4703158595457,
        "timestamp": "2025-12-25T07:41:09.995956+00:00",
        "meta_object_name": "FENGYUN 1C DEB",
        "meta_object_id": "1999-025KU",
        "meta_epoch": "2025-12-24T18:08:56.429952",
        "meta_mean_motion": 14.43984913,
        "meta_eccentricity": 0.00913901,
        "meta_inclination": 98.8098,
        "meta_ra_of_asc_node": 287.4905,
        "meta_arg_of_pericenter": 151.556,
        "meta_mean_anomaly": 271.9414,
        "meta_ephemeris_type": 0,
        "meta_classification_type": "U",
        "meta_norad_cat_id": 29970,
        "meta_element_set_no": 999,
        "meta_rev_at_epoch": 99294,
        "meta_bstar": 0.00037339383,
        "meta_mean_motion_dot": 1.292e-05,
        "meta_mean_motion_ddot": 0,
        "tle_line1": "1 29970U 99025KU  25358.75620868  .00001292  00000+0  37339-3 0  9998",
        "tle_line2": "2 29970  98.8098 287.4905 0091390 151.5560 271.9414 14.43984913992948"
      },
      "geometry": {
        "type": "Point",
        "coordinates": [
          127.62571907883758,
          65.13608842507053
        ]
      }
    },
    {
      "type": "Feature",
      "properties": {
        "norad_id": 29971,
        "name": "FENGYUN 1C DEB",
        "group": "fengyun-1c-debris",
        "lat": 6.326286160892849,
        "lon": 37.84470533658645,
        "alt_km": 843.6848868959996,
        "timestamp": "2025-12-25T07:41:09.995966+00:00",
        "meta_object_name": "FENGYUN 1C DEB",
        "meta_object_id": "1999-025KV",
        "meta_epoch": "2025-12-24T16:57:43.569792",
        "meta_mean_motion": 14.18216767,
        "meta_eccentricity": 0.00241498,
        "meta_inclination": 98.6822,
        "meta_ra_of_asc_node": 38.2153,
        "meta_arg_of_pericenter": 134.4482,
        "meta_mean_anomaly": 341.7771,
        "meta_ephemeris_type": 0,
        "meta_classification_type": "U",
        "meta_norad_cat_id": 29971,
        "meta_element_set_no": 999,
        "meta_rev_at_epoch": 97509,
        "meta_bstar": 0.00074174283,
        "meta_mean_motion_dot": 1.487e-05,
        "meta_mean_motion_ddot": 0,
        "tle_line1": "1 29971U 99025KV  25358.70675428  .00001487  00000+0  74174-3 0  9990",
        "tle_line2": "2 29971  98.6822  38.2153 0024149 134.4482 341.7771 14.18216767975096"
      },
      "geometry": {
        "type": "Point",
        "coordinates": [
          37.84470533658645,
          6.326286160892849
        ]
      }
    },
    {
      "type": "Feature",
      "properties": {
        "norad_id": 29972,
        "name": "FENGYUN 1C DEB",
        "group": "fengyun-1c-debris",
        "lat": -10.942734924016529,
        "lon": -169.2308659854639,
        "alt_km": 712.2439148636968,
        "timestamp": "2025-12-25T07:41:09.995976+00:00",
        "meta_object_name": "FENGYUN 1C DEB",
        "meta_object_id": "1999-025KW",
        "meta_epoch": "2025-12-24T20:10:13.594368",
        "meta_mean_motion": 14.66502372,
        "meta_eccentricity": 0.00640723,
        "meta_inclination": 98.9206,
        "meta_ra_of_asc_node": 11.9881,
        "meta_arg_of_pericenter": 334.9287,
        "meta_mean_anomaly": 204.7907,
        "meta_ephemeris_type": 0,
        "meta_classification_type": "U",
        "meta_norad_cat_id": 29972,
        "meta_element_set_no": 999,
        "meta_rev_at_epoch": 99663,
        "meta_bstar": 0.0012337284,
        "meta_mean_motion_dot": 6.994e-05,
        "meta_mean_motion_ddot": 0,
        "tle_line1": "1 29972U 99025KW  25358.84043512  .00006994  00000+0  12337-2 0  9999",
        "tle_line2": "2 29972  98.9206  11.9881 0064072 334.9287 204.7907 14.66502372996636"
      },
      "geometry": {
        "type": "Point",
        "coordinates": [
          -169.2308659854639,
          -10.942734924016529
        ]
      }
    },
    {
      "type": "Feature",
      "properties": {
        "norad_id": 29973,
        "name": "FENGYUN 1C DEB",
        "group": "fengyun-1c-debris",
        "lat": 26.881681466801368,
        "lon": -175.94939184839865,
        "alt_km": 836.2109776262023,
        "timestamp": "2025-12-25T07:41:09.995986+00:00",
        "meta_object_name": "FENGYUN 1C DEB",
        "meta_object_id": "1999-025KX",
        "meta_epoch": "2025-12-24T22:42:11.272320",
        "meta_mean_motion": 14.06561204,
        "meta_eccentricity": 0.00595978,
        "meta_inclination": 98.8427,
        "meta_ra_of_asc_node": 359.1588,
        "meta_arg_of_pericenter": 115.0493,
        "meta_mean_anomaly": 302.9774,
        "meta_ephemeris_type": 0,
        "meta_classification_type": "U",
        "meta_norad_cat_id": 29973,
        "meta_element_set_no": 999,
        "meta_rev_at_epoch": 96890,
        "meta_bstar": 0.00074660215,
        "meta_mean_motion_dot": 1.214e-05,
        "meta_mean_motion_ddot": 0,
        "tle_line1": "1 29973U 99025KX  25358.94596380  .00001214  00000+0  74660-3 0  9995",
        "tle_line2": "2 29973  98.8427 359.1588 0059597 115.0493 302.9774 14.06561204968900"
      },
      "geometry": {
        "type": "Point",
        "coordinates": [
          -175.94939184839865,
          26.881681466801368
        ]
      }
    },
    {
      "type": "Feature",
      "properties": {
        "norad_id": 29974,
        "name": "FENGYUN 1C DEB",
        "group": "fengyun-1c-debris",
        "lat": 26.99820149685077,
        "lon": 78.87454149088232,
        "alt_km": 810.135945600181,
        "timestamp": "2025-12-25T07:41:09.995996+00:00",
        "meta_object_name": "FENGYUN 1C DEB",
        "meta_object_id": "1999-025KY",
        "meta_epoch": "2025-12-24T18:32:58.725024",
        "meta_mean_motion": 14.14894514,
        "meta_eccentricity": 0.00459516,
        "meta_inclination": 98.8932,
        "meta_ra_of_asc_node": 82.9047,
        "meta_arg_of_pericenter": 47.9463,
        "meta_mean_anomaly": 73.2243,
        "meta_ephemeris_type": 0,
        "meta_classification_type": "U",
        "meta_norad_cat_id": 29974,
        "meta_element_set_no": 999,
        "meta_rev_at_epoch": 97095,
        "meta_bstar": 0.00097599866,
        "meta_mean_motion_dot": 1.861e-05,
        "meta_mean_motion_ddot": 0,
        "tle_line1": "1 29974U 99025KY  25358.77290191  .00001861  00000+0  97600-3 0  9995",
        "tle_line2": "2 29974  98.8932  82.9047 0045951  47.9463  73.2243 14.14894514970951"
      },
      "geometry": {
        "type": "Point",
        "coordinates": [
          78.87454149088232,
          26.99820149685077
        ]
      }
    }
  ]
}